{
  "type": "FeatureCollection",
  "features": [
    {
      "type": "Feature",
      "properties": {
        "norad_id": 41330,
        "name": "COSMOS 2514 (751)",
        "group": "glo-ops",
        "lat": -12.111808783586053,
        "lon": -46.58859072382218,
        "alt_km": 19149.752221711162,
        "timestamp": "2025-12-20T11:30:28.638215+00:00",
        "meta_object_name": "COSMOS 2514 (751)",
        "meta_object_id": "2016-008A",
        "meta_epoch": "2025-12-20T00:39:52.986240",
        "meta_mean_motion": 2.13102687,
        "meta_eccentricity": 0.0011788,
        "meta_inclination": 65.1296,
        "meta_ra_of_asc_node": 319.1545,
        "meta_arg_of_pericenter": 220.1446,
        "meta_mean_anomaly": 139.76,
        "meta_ephemeris_type": 0,
        "meta_classification_type": "U",
        "meta_norad_cat_id": 41330,
        "meta_element_set_no": 999,
        "meta_rev_at_epoch": 7680,
        "meta_bstar": 0,
        "meta_mean_motion_dot": -5.4e-07,
        "meta_mean_motion_ddot": 0,
        "tle_line1": "1 41330U 16008A   25354.02769660 -.00000054  00000+0  00000+0 0  9999",
        "tle_line2": "2 41330  65.1296 319.1545 0011788 220.1446 139.7600  2.13102687 76801"
      },
      "geometry": {
        "type": "Point",
        "coordinates": [
          -46.58859072382218,
          -12.111808783586053
        ]
      }
    },
    {
      "type": "Feature",
      "properties": {
        "norad_id": 42939,
        "name": "COSMOS 2522 (752)",
        "group": "glo-ops",
        "lat": 57.35854475924783,
        "lon": -31.471236154896605,
        "alt_km": 19130.008072567343,
        "timestamp": "2025-12-20T11:30:28.638258+00:00",
        "meta_object_name": "COSMOS 2522 (752)",
        "meta_object_id": "2017-055A",
        "meta_epoch": "2025-12-19T20:47:07.990080",
        "meta_mean_motion": 2.13102095,
        "meta_eccentricity": 0.0006377,
        "meta_inclination": 64.0763,
        "meta_ra_of_asc_node": 197.9863,
        "meta_arg_of_pericenter": 224.0573,
        "meta_mean_anomaly": 135.969,
        "meta_ephemeris_type": 0,
        "meta_classification_type": "U",
        "meta_norad_cat_id": 42939,
        "meta_element_set_no": 999,
        "meta_rev_at_epoch": 6415,
        "meta_bstar": 0,
        "meta_mean_motion_dot": 1.03e-06,
        "meta_mean_motion_ddot": 0,
        "tle_line1": "1 42939U 17055A   25353.86606470  .00000103  00000+0  00000+0 0  9992",
        "tle_line2": "2 42939  64.0763 197.9863 0006377 224.0573 135.9690  2.13102095 64156"
      },
      "geometry": {
        "type": "Point",
        "coordinates": [
          -31.471236154896605,
          57.35854475924783
        ]
      }
    },
    {
      "type": "Feature",
      "properties": {
        "norad_id": 43508,
        "name": "COSMOS 2527 (756)",
        "group": "glo-ops",
        "lat": 35.33758542590167,
        "lon": -118.96509462324623,
        "alt_km": 19124.302238469234,
        "timestamp": "2025-12-20T11:30:28.638281+00:00",
        "meta_object_name": "COSMOS 2527 (756)",
        "meta_object_id": "2018-053A",
        "meta_epoch": "2025-12-18T21:19:14.310912",
        "meta_mean_motion": 2.13102316,
        "meta_eccentricity": 0.0008836,
        "meta_inclination": 65.4759,
        "meta_ra_of_asc_node": 79.9259,
        "meta_arg_of_pericenter": 226.7635,
        "meta_mean_anomaly": 133.1863,
        "meta_ephemeris_type": 0,
        "meta_classification_type": "U",
        "meta_norad_cat_id": 43508,
        "meta_element_set_no": 999,
        "meta_rev_at_epoch": 5843,
        "meta_bstar": 0,
        "meta_mean_motion_dot": -3.3e-07,
        "meta_mean_motion_ddot": 0,
        "tle_line1": "1 43508U 18053A   25352.88836008 -.00000033  00000+0  00000+0 0  9990",
        "tle_line2": "2 43508  65.4759  79.9259 0008836 226.7635 133.1863  2.13102316 58439"
      },
      "geometry": {
        "type": "Point",
        "coordinates": [
          -118.96509462324623,
          35.33758542590167
        ]
      }
    },
    {
      "type": "Feature",
      "properties": {
        "norad_id": 43687,
        "name": "COSMOS 2529 (757)",
        "group": "glo-ops",
        "lat": 55.31312669452924,
        "lon": -117.22788546920789,
        "alt_km": 19141.507669138966,
        "timestamp": "2025-12-20T11:30:28.638302+00:00",
        "meta_object_name": "COSMOS 2529 (757)",
        "meta_object_id": "2018-086A",
        "meta_epoch": "2025-12-18T12:23:46.661856",
        "meta_mean_motion": 2.13102105,
        "meta_eccentricity": 0.00070461,
        "meta_inclination": 64.2922,
        "meta_ra_of_asc_node": 198.6932,
        "meta_arg_of_pericenter": 253.6593,
        "meta_mean_anomaly": 106.345,
        "meta_ephemeris_type": 0,
        "meta_classification_type": "U",
        "meta_norad_cat_id": 43687,
        "meta_element_set_no": 999,
        "meta_rev_at_epoch": 5543,
        "meta_bstar": 0,
        "meta_mean_motion_dot": 1.09e-06,
        "meta_mean_motion_ddot": 0,
        "tle_line1": "1 43687U 18086A   25352.51651229  .00000109  00000+0  00000+0 0  9997",
        "tle_line2": "2 43687  64.2922 198.6932 0007046 253.6593 106.3450  2.13102105 55434"
      },
      "geometry": {
        "type": "Point",
        "coordinates": [
          -117.22788546920789,
          55.31312669452924
        ]
      }
    },
    {
      "type": "Feature",
      "properties": {
        "norad_id": 44299,
        "name": "COSMOS 2534 (758)",
        "group": "glo-ops",
        "lat": -18.179463823728128,
        "lon": 27.713831270628784,
        "alt_km": 19130.287768131817,
        "timestamp": "2025-12-20T11:30:28.638324+00:00",
        "meta_object_name": "COSMOS 2534 (758)",
        "meta_object_id": "2019-030A",
        "meta_epoch": "2025-12-18T18:30:09.690336",
        "meta_mean_motion": 2.13102412,
        "meta_eccentricity": 0.0008748,
        "meta_inclination": 64.3658,
        "meta_ra_of_asc_node": 198.6898,
        "meta_arg_of_pericenter": 284.2192,
        "meta_mean_anomaly": 45.4012,
        "meta_ephemeris_type": 0,
        "meta_classification_type": "U",
        "meta_norad_cat_id": 44299,
        "meta_element_set_no": 999,
        "meta_rev_at_epoch": 5107,
        "meta_bstar": 0,
        "meta_mean_motion_dot": 1.08e-06,
        "meta_mean_motion_ddot": 0,
        "tle_line1": "1 44299U 19030A   25352.77094549  .00000108  00000+0  00000+0 0  9990",
        "tle_line2": "2 44299  64.3658 198.6898 0008748 284.2192  45.4012  2.13102412 51071"
      },
      "geometry": {
        "type": "Point",
        "coordinates": [
          27.713831270628784,
          -18.179463823728128
        ]
      }
    },
    {
      "type": "Feature",
      "properties": {
        "norad_id": 44850,
        "name": "COSMOS 2544 (759)",
        "group": "glo-ops",
        "lat": -2.6780160287894876,
        "lon": -99.0663142807216,
        "alt_km": 19116.726063006656,
        "timestamp": "2025-12-20T11:30:28.638338+00:00",
        "meta_object_name": "COSMOS 2544 (759)",
        "meta_object_id": "2019-088A",
        "meta_epoch": "2025-12-19T07:15:09.090720",
        "meta_mean_motion": 2.13102067,
        "meta_eccentricity": 0.0014082,
        "meta_inclination": 65.4636,
        "meta_ra_of_asc_node": 79.7387,
        "meta_arg_of_pericenter": 249.9981,
        "meta_mean_anomaly": 109.8765,
        "meta_ephemeris_type": 0,
        "meta_classification_type": "U",
        "meta_norad_cat_id": 44850,
        "meta_element_set_no": 999,
        "meta_rev_at_epoch": 4688,
        "meta_bstar": 0,
        "meta_mean_motion_dot": -2.9e-07,
        "meta_mean_motion_ddot": 0,
        "tle_line1": "1 44850U 19088A   25353.30218855 -.00000029  00000+0  00000+0 0  9997",
        "tle_line2": "2 44850  65.4636  79.7387 0014082 249.9981 109.8765  2.13102067 46885"
      },
      "geometry": {
        "type": "Point",
        "coordinates": [
          -99.0663142807216,
          -2.6780160287894876
        ]
      }
    },
    {
      "type": "Feature",
      "properties": {
        "norad_id": 45358,
        "name": "COSMOS 2545 (760)",
        "group": "glo-ops",
        "lat": 29.427278975118277,
        "lon": -25.68459285506301,
        "alt_km": 19150.088581961416,
        "timestamp": "2025-12-20T11:30:28.638349+00:00",
        "meta_object_name": "COSMOS 2545 (760)",
        "meta_object_id": "2020-018A",
        "meta_epoch": "2025-12-19T00:41:16.420128",
        "meta_mean_motion": 2.13102611,
        "meta_eccentricity": 0.0011548,
        "meta_inclination": 64.4657,
        "meta_ra_of_asc_node": 318.7488,
        "meta_arg_of_pericenter": 249.6698,
        "meta_mean_anomaly": 110.1972,
        "meta_ephemeris_type": 0,
        "meta_classification_type": "U",
        "meta_norad_cat_id": 45358,
        "meta_element_set_no": 999,
        "meta_rev_at_epoch": 4482,
        "meta_bstar": 0,
        "meta_mean_motion_dot": -6.1e-07,
        "meta_mean_motion_ddot": 0,
        "tle_line1": "1 45358U 20018A   25353.02866227 -.00000061  00000+0  00000+0 0  9993",
        "tle_line2": "2 45358  64.4657 318.7488 0011548 249.6698 110.1972  2.13102611 44827"
      },
      "geometry": {
        "type": "Point",
        "coordinates": [
          -25.68459285506301,
          29.427278975118277
        ]
      }
    }
  ]
}